{
  "type": "FeatureCollection",
  "features": [
    {
      "type": "Feature",
      "properties": {
        "norad_id": 26766,
        "name": "INTELSAT 10 (IS-10)",
        "group": "intelsat",
        "lat": 6.947056745197812,
        "lon": -172.53233182127988,
        "alt_km": 36124.49272263308,
        "timestamp": "2025-12-02T19:35:50.229107+00:00",
        "meta_object_name": "INTELSAT 10 (IS-10)",
        "meta_object_id": "2001-019A",
        "meta_epoch": "2025-12-02T11:35:38.855904",
        "meta_mean_motion": 0.99077787,
        "meta_eccentricity": 0.0007699,
        "meta_inclination": 8.6036,
        "meta_ra_of_asc_node": 61.2568,
        "meta_arg_of_pericenter": 218.3784,
        "meta_mean_anomaly": 148.6829,
        "meta_ephemeris_type": 0,
        "meta_classification_type": "U",
        "meta_norad_cat_id": 26766,
        "meta_element_set_no": 999,
        "meta_rev_at_epoch": 4363,
        "meta_bstar": 0,
        "meta_mean_motion_dot": -1.25e-06,
        "meta_mean_motion_ddot": 0,
        "tle_line1": "1 26766U 01019A   25336.48308861 -.00000125  00000+0  00000+0 0  9992",
        "tle_line2": "2 26766   8.6036  61.2568 0007699 218.3784 148.6829  0.99077787 43632"
      },
      "geometry": {
        "type": "Point",
        "coordinates": [
          -172.53233182127988,
          6.947056745197812
        ]
      }
    },
    {
      "type": "Feature",
      "properties": {
        "norad_id": 26900,
        "name": "INTELSAT 902 (IS-902)",
        "group": "intelsat",
        "lat": -4.9472744647768065,
        "lon": -44.338675193616204,
        "alt_km": 35779.961869947416,
        "timestamp": "2025-12-02T19:35:50.229132+00:00",
        "meta_object_name": "INTELSAT 902 (IS-902)",
        "meta_object_id": "2001-039A",
        "meta_epoch": "2025-12-01T16:59:59.311968",
        "meta_mean_motion": 1.00270327,
        "meta_eccentricity": 0.00043097,
        "meta_inclination": 5.6187,
        "meta_ra_of_asc_node": 74.2002,
        "meta_arg_of_pericenter": 175.119,
        "meta_mean_anomaly": 26.3816,
        "meta_ephemeris_type": 0,
        "meta_classification_type": "U",
        "meta_norad_cat_id": 26900,
        "meta_element_set_no": 999,
        "meta_rev_at_epoch": 8871,
        "meta_bstar": 0,
        "meta_mean_motion_dot": -2.63e-06,
        "meta_mean_motion_ddot": 0,
        "tle_line1": "1 26900U 01039A   25335.70832537 -.00000263  00000+0  00000+0 0  9993",
        "tle_line2": "2 26900   5.6187  74.2002 0004309 175.1190  26.3816  1.00270327 88713"
      },
      "geometry": {
        "type": "Point",
        "coordinates": [
          -44.338675193616204,
          -4.9472744647768065
        ]
      }
    },
    {
      "type": "Feature",
      "properties": {
        "norad_id": 27380,
        "name": "INTELSAT 904 (IS-904)",
        "group": "intelsat",
        "lat": -6.375036236604186,
        "lon": -25.66253200508987,
        "alt_km": 35784.96488695276,
        "timestamp": "2025-12-02T19:35:50.229147+00:00",
        "meta_object_name": "INTELSAT 904 (IS-904)",
        "meta_object_id": "2002-007A",
        "meta_epoch": "2025-12-02T03:21:43.155648",
        "meta_mean_motion": 1.0026967,
        "meta_eccentricity": 0.0001502,
        "meta_inclination": 6.4264,
        "meta_ra_of_asc_node": 71.5525,
        "meta_arg_of_pericenter": 197.1555,
        "meta_mean_anomaly": 181.4839,
        "meta_ephemeris_type": 0,
        "meta_classification_type": "U",
        "meta_norad_cat_id": 27380,
        "meta_element_set_no": 999,
        "meta_rev_at_epoch": 4979,
        "meta_bstar": 0,
        "meta_mean_motion_dot": -2.07e-06,
        "meta_mean_motion_ddot": 0,
        "tle_line1": "1 27380U 02007A   25336.14008282 -.00000207  00000+0  00000+0 0  9991",
        "tle_line2": "2 27380   6.4264  71.5525 0001502 197.1555 181.4839  1.00269670 49794"
      },
      "geometry": {
        "type": "Point",
        "coordinates": [
          -25.66253200508987,
          -6.375036236604186
        ]
      }
    },
    {
      "type": "Feature",
      "properties": {
        "norad_id": 27426,
        "name": "DIRECTV 5 (TEMPO 1)",
        "group": "intelsat",
        "lat": 0.13242125884264044,
        "lon": -104.27014302186353,
        "alt_km": 35770.803417695824,
        "timestamp": "2025-12-02T19:35:50.229161+00:00",
        "meta_object_name": "DIRECTV 5 (TEMPO 1)",
        "meta_object_id": "2002-023A",
        "meta_epoch": "2025-12-02T08:35:38.815296",
        "meta_mean_motion": 1.00271138,
        "meta_eccentricity": 0.0003699,
        "meta_inclination": 4.3735,
        "meta_ra_of_asc_node": 77.7745,
        "meta_arg_of_pericenter": 187.6548,
        "meta_mean_anomaly": 184.8233,
        "meta_ephemeris_type": 0,
        "meta_classification_type": "U",
        "meta_norad_cat_id": 27426,
        "meta_element_set_no": 999,
        "meta_rev_at_epoch": 8615,
        "meta_bstar": 0,
        "meta_mean_motion_dot": -3.7e-07,
        "meta_mean_motion_ddot": 0,
        "tle_line1": "1 27426U 02023A   25336.35808814 -.00000037  00000+0  00000+0 0  9993",
        "tle_line2": "2 27426   4.3735  77.7745 0003699 187.6548 184.8233  1.00271138 86150"
      },
      "geometry": {
        "type": "Point",
        "coordinates": [
          -104.27014302186353,
          0.13242125884264044
        ]
      }
    },
    {
      "type": "Feature",
      "properties": {
        "norad_id": 27438,
        "name": "INTELSAT 905 (IS-905)",
        "group": "intelsat",
        "lat": 2.4687805666318487,
        "lon": -131.22651184697008,
        "alt_km": 35774.211641181784,
        "timestamp": "2025-12-02T19:35:50.229173+00:00",
        "meta_object_name": "INTELSAT 905 (IS-905)",
        "meta_object_id": "2002-027A",
        "meta_epoch": "2025-12-02T09:56:38.678784",
        "meta_mean_motion": 1.00272936,
        "meta_eccentricity": 0.0003069,
        "meta_inclination": 6.2577,
        "meta_ra_of_asc_node": 72.1733,
        "meta_arg_of_pericenter": 187.1236,
        "meta_mean_anomaly": 184.1903,
        "meta_ephemeris_type": 0,
        "meta_classification_type": "U",
        "meta_norad_cat_id": 27438,
        "meta_element_set_no": 999,
        "meta_rev_at_epoch": 4939,
        "meta_bstar": 0,
        "meta_mean_motion_dot": 1.12e-06,
        "meta_mean_motion_ddot": 0,
        "tle_line1": "1 27438U 02027A   25336.41433656  .00000112  00000+0  00000+0 0  9998",
        "tle_line2": "2 27438   6.2577  72.1733 0003069 187.1236 184.1903  1.00272936 49393"
      },
      "geometry": {
        "type": "Point",
        "coordinates": [
          -131.22651184697008,
          2.4687805666318487
        ]
      }
    },
    {
      "type": "Feature",
      "properties": {
        "norad_id": 27445,
        "name": "GALAXY 3C (G-3C)",
        "group": "intelsat",
        "lat": -0.6038276285281021,
        "lon": -89.00565087427192,
        "alt_km": 35786.85283468528,
        "timestamp": "2025-12-02T19:35:50.229185+00:00",
        "meta_object_name": "GALAXY 3C (G-3C)",
        "meta_object_id": "2002-030A",
        "meta_epoch": "2025-12-02T08:19:38.698752",
        "meta_mean_motion": 1.00270405,
        "meta_eccentricity": 0.0001307,
        "meta_inclination": 3.2363,
        "meta_ra_of_asc_node": 80.612,
        "meta_arg_of_pericenter": 97.2134,
        "meta_mean_anomaly": 283.6835,
        "meta_ephemeris_type": 0,
        "meta_classification_type": "U",
        "meta_norad_cat_id": 27445,
        "meta_element_set_no": 999,
        "meta_rev_at_epoch": 4452,
        "meta_bstar": 0,
        "meta_mean_motion_dot": -1.32e-06,
        "meta_mean_motion_ddot": 0,
        "tle_line1": "1 27445U 02030A   25336.34697568 -.00000132  00000+0  00000+0 0  9999",
        "tle_line2": "2 27445   3.2363  80.6120 0001307  97.2134 283.6835  1.00270405 44524"
      },
      "geometry": {
        "type": "Point",
        "coordinates": [
          -89.00565087427192,
          -0.6038276285281021
        ]
      }
    },
    {
      "type": "Feature",
      "properties": {
        "norad_id": 27513,
        "name": "INTELSAT 906 (IS-906)",
        "group": "intelsat",
        "lat": -0.46867832674793397,
        "lon": 70.0281678425141,
        "alt_km": 35810.63761493224,
        "timestamp": "2025-12-02T19:35:50.229197+00:00",
        "meta_object_name": "INTELSAT 906 (IS-906)",
        "meta_object_id": "2002-041A",
        "meta_epoch": "2025-12-02T00:41:51.813024",
        "meta_mean_motion": 1.00272894,
        "meta_eccentricity": 0.00061114,
        "meta_inclination": 5.3019,
        "meta_ra_of_asc_node": 75.3582,
        "meta_arg_of_pericenter": 191.023,
        "meta_mean_anomaly": 239.354,
        "meta_ephemeris_type": 0,
        "meta_classification_type": "U",
        "meta_norad_cat_id": 27513,
        "meta_element_set_no": 999,
        "meta_rev_at_epoch": 8505,
        "meta_bstar": 0,
        "meta_mean_motion_dot": 3.2e-07,
        "meta_mean_motion_ddot": 0,
        "tle_line1": "1 27513U 02041A   25336.02907191  .00000032  00000+0  00000+0 0  9996",
        "tle_line2": "2 27513   5.3019  75.3582 0006111 191.0230 239.3540  1.00272894 85050"
      },
      "geometry": {
        "type": "Point",
        "coordinates": [
          70.0281678425141,
          -0.46867832674793397
        ]
      }
    }
  ]
}